<!DOCTYPE HTML PUBLIC "-//W3C//DTD HTML 4.0//EN">
<HTML>
<HEAD>
   <TITLE> Pseudo-MPEC for A11D0Xd </TITLE>
   <META http-equiv=Content-Type content="text/html; charset=utf-8">
   <style type="text/css">
   .neocp {color:black; background-color:black; text-decoration:blink;}
   .whtext {color:white;}
   </style>
</HEAD>
<BODY>

<P><b>  "Pseudo-MPEC" for A11D0Xd </b></p>

<p><i> Created 2026 May 31 22:38:42 UT using <a href="https://www.projectpluto.com/find_orb.htm">Find_Orb</a></i></p>
<p><i> <a href="https://www.projectpluto.com/mpec_xpl.htm"> Click here for an
   explanation of pseudo-MPECs </a> </i> </p>

<ul>
<li> <a href="#ast"> Astrometry </a> </li>
<li> <a href="#stations"> Observing stations </a> </li>
<li> <a href="#elements"> Orbital elements </a> </li>
<li> <a href="#residuals"> Residuals </a> </li>
<li> <a href="#eph"> Ephemeris </a> </li>

<li> <a href="https://cgi.minorplanetcenter.net/cgi-bin/showobsorbs.cgi?Obj=A11D0Xd&amp;obs=y"> Astrometry (from NEOCP,  if available) </a> </li>
<li> <a href="https://cneos.jpl.nasa.gov/scout/#/object/A11D0Xd"> 'Scout' (JPL) information </a> </li>
<li> <a href="https://neofixer.arizona.edu/site/500/A11D0Xd"> NEOfixer information </a> </li>
</ul>
<p>
<input type = "button" value = "Orbit Simulator View" onclick = "window.open('http://orbitsimulator.com/gravitySimulatorCloud/yr/gsim2023.html?sv,1,A11D0Xd,2461190.50,-49538991895.416252,-154615720602.898071,-6980316779.162624,-1511.479415,10683.442975,23884.448746,0,0,00FF00,90,65,,16000,0,12,1,0,21.498071,0.150000')">
</p>
<pre> <a name="ast"></a>
<a href="https://www.projectpluto.com/mpec_xpl.htm#astrometry"> <b>Astrometry:</b> </a>
<a name="o001"></a><a href="#r001">     A11D0Xd</a>*0C2026 05 30.02478720 15 01.217-44 59 43.87   ~5U7Z 18.49oVNEOCP<a href="#stn_M22">M22</a>
<a name="o002"></a><a href="#r002">     A11D0Xd</a> 0C2026 05 30.02659020 14 58.030-44 59 36.64   ~5U7Z 18.32oVNEOCP<a href="#stn_M22">M22</a>
<a name="o003"></a><a href="#r003">     A11D0Xd</a> 0C2026 05 30.02945220 14 52.618-44 59 24.00   ~5U7Z 18.77oVNEOCP<a href="#stn_M22">M22</a>
<a name="o004"></a><a href="#r004">     A11D0Xd</a> 0C2026 05 30.03949720 14 34.054-44 58 39.94   ~5U7Z 17.90oVNEOCP<a href="#stn_M22">M22</a>
<a name="stations"></a>
<a href="https://www.projectpluto.com/mpec_xpl.htm#stns"><b>Station data:
</b></a><a name="stn_M22"></a>(M22) ATLAS South Africa, Sutherland  (<a title="Click for map" href="http://maps.google.com/maps?q=-32.38016,+20.81059">S32.380156 E20.810590</a>)  South Africa.
   Observers L. <a href="https://ssd.jpl.nasa.gov/tools/sbdb_lookup.html#/?sstr=12267&amp;view=OPD">Denneau</a>, R. Siverd, J. <a href="http://www.ifa.hawaii.edu/~jt/">Tonry</a>, H. Weiland. Measurers L.
   <a href="https://ssd.jpl.nasa.gov/tools/sbdb_lookup.html#/?sstr=12267&amp;view=OPD">Denneau</a>, N. Erasmus, A. <a href="https://alanfitzsimmons.wordpress.com/">Fitzsimmons</a>, J. Robinson, R. Siverd, J. <a href="http://www.ifa.hawaii.edu/~jt/">Tonry</a>, H.
   Weiland. 0.5-m f/2.0 Schmidt + CCD.
<a name="elements"></a>
<a href="https://www.projectpluto.com/mpec_xpl.htm#elems"><b>Orbital elements:  A11D0Xd</b></a>
   Perihelion 2026 Aug 19.30594 +/- 67.5 TT =  7:20:32 (JD 2461271.80594)
Epoch 2026 May 30.0 TT = JDT 2461190.5   Earth MOID: 0.0457      Auto-Find
M 271.69811399 +/- 90               (J2000 ecliptic)
n   1.08604476 +/- 0.727            Peri.  131.15581 +/- 70
a   0.93735528 +/- 0.419            Node   251.74124 +/- 34
e   0.4343093 +/- 0.189             Incl.  101.32309 +/- 39
P   0.908/331.472d         <a title="Size is probably 130 to 300 meters"
href="https://www.minorplanetcenter.net/iau/lists/Sizes.html">H</a> 21.50  G  0.15   U 12.5  SR
q 0.53025316 +/- 0.283    Q 1.34445739 +/- 17.8
From 4 observations 2026 May 30 (21.2 min); mean residual 0".43
</pre> <!-- State vector (heliocentric equatorial J2000): -->
<!--   -0.331147707274  -0.929695984043  -0.453929703133 AU -->
<!--   -0.872952408167  +0.173945541931 +15.110502492786 mAU/day -->
<!-- MOIDs: Me  0.264308 Ve  0.124911 Ea  0.045729 Ma  0.391831 -->
<!-- MOIDs: Ju  4.161069 Sa  8.426687 Ur 17.639376 Ne 29.138501 -->
<!-- 1 oppositions -->
<!-- Elements written: 31 May 2026 22:38:42 (JD 2461192.443551) -->
<!-- Full range of obs: 2026 May 30 (21.2 min) (4 observations) -->
<!-- Find_Orb ver: 2026 Mar 01 -->
<!-- Perturbers: 00000001 ;  JPL DE-436 -->
<!-- Tisserand relative to Earth: 0.72438 -->
<!-- Earth encounter velocity 45.2555 km/s -->
<!-- Barbee-style encounter velocity: 43.4368 km/s -->
<!-- Diameter 206.2 meters (assuming 10% albedo) -->
<!-- Score: 0.614801 -->
<!--  $Name=A11D0Xd  $Ty=2026  $Tm=08  $Td=19.305935  $MA=271.69811 -->
<!--  $ecc=0.4343093  $Eqnx=2000. -->
<!--  $a=0.9373553  $Peri=131.15582  $Node=251.74124  $Incl=101.32310 -->
<!--  $EpJD=2461190.500  $q=0.530253  $T=2461271.805936  $H=21.5 -->
<!-- Sigmas avail: 3 -->
<pre><b><a name="residuals"></a><a href="https://www.projectpluto.com/mpec_xpl.htm#resids">Residuals in arcseconds:</a> </b>
<a name="r001"></a><a href="#o001">260530</a> <a href="#stn_M22">M22</a>  .55-  .29+    <a name="r003"></a><a href="#o003">260530</a> <a href="#stn_M22">M22</a>  .40-  .06-    
<a name="r002"></a><a href="#o002">260530</a> <a href="#stn_M22">M22</a>  .94+  .28-    <a name="r004"></a><a href="#o004">260530</a> <a href="#stn_M22">M22</a>  .01+  .05+    

<a name="eph"></a><a href="https://www.projectpluto.com/mpec_xpl.htm#ephems"><b>Ephemerides for (X93) Munhoz Observatory: A11D0Xd:</b></a>
Date (UTC) HH   RA             Dec           delta  r     elong  mag " sig PA
---- --------  ------------   ------------  ------ ------ -----  --- --------
2026 05 31 23  18 49 34.933   -39 02 15.92  .07126 1.0740 146.5 17.3  43d  51
2026 06 01 00  18 46 59.060   -38 46 41.01  .07048 1.0738 147.1 17.2  43d  51
2026 06 01 01  18 44 20.243   -38 30 31.10  .06972 1.0735 147.7 17.2  44d  51
2026 06 01 02  18 41 38.528   -38 13 43.63  .06896 1.0732 148.3 17.1  44d  51
2026 06 01 03  18 38 54.012   -37 56 16.18  .06821 1.0730 149.0 17.1  45d  51
2026 06 01 04  18 36 06.846   -37 38 06.57  .06747 1.0727 149.6 17.1  45d  52
2026 06 01 05  18 33 17.214   -37 19 12.93  .06674 1.0724 150.3 17.0  46d  52
2026 06 01 06  18 30 25.327   -36 59 33.81  .06602 1.0722 151.0 17.0  46d  52
2026 06 01 07  18 27 31.407   -36 39 08.15  .06532 1.0719 151.7 16.9  46d  52
2026 06 01 08  18 24 35.665   -36 17 55.31  .06462 1.0716 152.4 16.9  47d  52
</pre></body></html>
